KUZGTU-1 (RS47S)
1 57217U 23091AV  25131.18514240  .00009580  00000-0  45187-3 0  9994
2 57217  97.5608 188.4247 0015095  71.4722 288.8152 15.19587128103135
STRATOSAT-TK1-A (RS45S)
1 57322U 23091AW  25131.21494603  .00118832  00000-0  14966-2 0  9996
2 57322  97.5499 197.8717 0002728  76.6791 283.4769 15.59226035101648
STRATOSAT-TK1-E (RS52SE)
1 57323U 23091AX  25131.21071145  .00023509  00000-0  76145-3 0  9993
2 57323  97.5579 192.2639 0011135  67.5758 292.6662 15.31963991101276
STRATOSAT-TK1-B (RS52SB)
1 57324U 23091AY  25131.19550543  .00114704  00000-0  14723-2 0  9996
2 57324  97.5511 197.7641 0002757  73.8701 286.2858 15.58735586101636
STRATOSAT-TK1-D (RS52SD)
1 57326U 23091BA  25131.17046571  .00022587  00000-0  74861-3 0  9994
2 57326  97.5573 191.9771 0011359  67.9361 292.3085 15.31228243101098
STRATOSAT-TK1-V (RS52SV)
1 57327U 23091BB  25131.16159022  .00124142  00000-0  15691-2 0  9995
2 57327  97.5515 197.8389 0002807  72.6141 287.5422 15.59111986101470
VERONIKA
1 58261U 23174F   25131.20178136  .00104990  00000-0  11423-2 0  9995
2 58261  97.4141 215.7846 0006863 168.8171 191.3241 15.63074683 84082
ENSO
1 58470U 23185J   25131.21527993  .00046400  00000-0  74787-3 0  9993
2 58470  97.3759 205.4606 0008836 182.1628 177.9588 15.52756993 80478
METEOR M2-4
1 59051U 24039A   25131.16956082  .00000023  00000-0  30064-4 0  9999
2 59051  98.6475  91.8568 0005912 251.6722 108.3813 14.22363737 62112
SITRO-AIS-30
1 59053U 24039C   25131.16384335  .01785240  30074-2  13909-2 0  9992
2 59053  97.3952 107.5869 0009348 162.5839 197.5770 16.15505421 67350
SITRO-AIS-49
1 59060U 24039K   25131.17879278  .02573614  24406-5  13188-2 0  9991
2 59060  97.3959 107.8982 0008393 171.3858 188.7576 16.20428075 67386
ZORKIY-2M 2
1 59064U 24039P   25131.17160064  .00036976  00000-0  57084-3 0  9997
2 59064  97.4266 102.6660 0013894 111.9153 248.3578 15.53932257 67043
PARS-1
1 59065U 24039Q   25131.19757911  .00008928  00000-0  25626-3 0  9996
2 59065  97.4375  98.9021 0013632 118.2660 241.9962 15.36003600 66751
SITRO-AIS-25
1 59066U 24039R   25131.22391603  .00002879  00000-0  24864-3 0  9995
2 59066  95.3750 320.0464 0154409 289.2388  69.2185 14.88876168 64827
SITRO-AIS-26
1 59067U 24039S   25131.17968223  .00002982  00000-0  25829-3 0  9995
2 59067  95.3749 319.9804 0154634 289.5962  68.8624 14.88726584 64810
SITRO-AIS-27
1 59068U 24039T   25131.18106027  .00002998  00000-0  25798-3 0  9995
2 59068  95.3750 320.0950 0153911 288.9833  69.4767 14.89048868 64824
SITRO-AIS-28
1 59071U 24039U   25131.16893633  .00002801  00000-0  24105-3 0  9997
2 59071  95.3753 320.1115 0153752 288.9450  69.5163 14.89089922 64820
SONATE-2
1 59112U 24043Q   25130.90422067  .00017781  00000-0  52836-3 0  9993
2 59112  97.5095 261.5171 0011109 214.6898 145.3622 15.34768144 65780
HORS-1
1 57188U 23091Y   25131.19519585  .00007851  00000-0  38325-3 0  9994
2 57188  97.5614 188.7360 0012005  64.9342 295.3137 15.18495253103155
HORS-2
1 57196U 23091AG  25131.15104314  .00009688  00000-0  43994-3 0  9997
2 57196  97.5629 189.8323 0011579  63.8643 296.3782 15.20934793103212
ZORKIY-2M 6
1 59774U 24092B   25131.16821291  .00008385  00000-0  39803-3 0  9991
2 59774  97.6104 248.4424 0011926 142.7707 217.4357 15.19447884 54319
ZORKIY-2M 4
1 59775U 24092C   25131.16401409  .00008620  00000-0  40391-3 0  9993
2 59775  97.6233 249.2105 0011912 145.9843 214.2158 15.19889552 54337
SITRO-AIS-53
1 59776U 24092D   25130.84077606  .00012291  00000-0  54458-3 0  9994
2 59776  97.6181 248.6464 0011232 125.0473 235.1818 15.21718428 54289
SITRO-AIS-54
1 59777U 24092E   25130.83913746  .00012533  00000-0  55569-3 0  9991
2 59777  97.6179 248.6431 0011461 125.3532 234.8776 15.21688775 54284
SITRO-AIS-56
1 59778U 24092F   25130.87689300  .00013626  00000-0  59866-3 0  9990
2 59778  97.6176 248.7267 0011568 126.1860 234.0448 15.21979603 54293
RASSVET 1-4
1 59779U 24092G   25131.17237884  .00000225  00000-0  10117-3 0  9998
2 59779  98.6324 246.5992 0011272 316.0613  43.9673 14.31598876 51371
RASSVET 1-5
1 59780U 24092H   25131.24172930  .00000223  00000-0  10032-3 0  9992
2 59780  98.6323 246.6658 0011502 316.4421  43.5853 14.31598135 51384
RASSVET 1-6
1 59781U 24092J   25131.24069388  .00000224  00000-0  10090-3 0  9990
2 59781  98.6323 246.6680 0011270 316.0701  43.9585 14.31598834 51381
SITRO-AIS-55
1 59809U 24092K   25130.72945861  .00014207  00000-0  63098-3 0  9994
2 59809  97.6174 248.4563 0011656 125.8619 234.3700 15.21596373 53762
MESAT-1
1 60209U 24125G   25130.85941833  .00018023  00000-0  52883-3 0  9996
2 60209  97.2828 342.8290 0017745 240.9135 119.0332 15.35061660 47396
ISTSAT-1
1 60238U 24128D   25131.13828914  .00005600  00000-0  39888-3 0  9994
2 60238  61.9899 180.1553 0048462  50.5027 310.0335 15.04850789 45820
IONOSFERA-M 01
1 61735U 24199A   25131.19807891  .00000066  00000-0  49178-4 0  9997
2 61735  98.7734   2.3549 0000804 146.7812 213.3416 14.22664159 70542
IONOSFERA-M 02
1 61736U 24199B   25131.16263883  .00000068  00000-0  50469-4 0  9999
2 61736  98.7732   2.2350 0001888  68.1837 291.9542 14.22665238 73664
SITRO-AIS-16
1 61737U 24199C   25131.21217416  .00003196  00000-0  29878-3 0  9991
2 61737  97.3621 350.5252 0006658 357.3006   2.8178 14.94764582 71717
SITRO-AIS-15
1 61738U 24199D   25131.20443660  .00002920  00000-0  27310-3 0  9996
2 61738  97.3620 350.5354 0006462 357.1957   2.9228 14.94808290 71718
SITRO-AIS-21
1 61739U 24199E   25131.19929500  .00002569  00000-0  25077-3 0  9994
2 61739  97.3621 350.0991 0012567 341.8997  18.1775 14.93169960 71729
SITRO-AIS-22
1 61740U 24199F   25131.19505500  .00002547  00000-0  24817-3 0  9993
2 61740  97.3624 350.1107 0012700 343.0326  17.0468 14.93239282 71871
SITRO-AIS-24
1 61741U 24199G   25131.19652769  .00002609  00000-0  25454-3 0  9991
2 61741  97.3625 350.1115 0012675 344.5908  15.4925 14.93168290 71842
SITRO-AIS-23
1 61742U 24199H   25131.18980257  .00002326  00000-0  22695-3 0  9997
2 61742  97.3625 350.1178 0012573 344.2179  15.8648 14.93267222 71724
SITRO-AIS-13
1 61743U 24199J   25131.18663133  .00002472  00000-0  23083-3 0  9993
2 61743  97.3623 350.5576 0006440 359.0430   1.0779 14.94996024 71877
CSTP-2.11
1 61744U 24199K   25130.90457131  .00013362  00000-0  42539-3 0  9999
2 61744  97.3614 359.8744 0010472 290.2485  69.7630 15.32644316 72418
POLYTECH UNIVERSE-5 (RS70S)
1 61745U 24199L   25131.15669816  .00016759  00000-0  51027-3 0  9998
2 61745  97.3586   0.2285 0008011 299.5628  60.4816 15.34036664 75602
COLIBRI-S (RS67S)
1 61746U 24199M   25131.21649042  .00012003  00000-0  39190-3 0  9990
2 61746  97.3614   0.0627 0010464 290.7229  69.2890 15.31859901 75599
POLYTECH UNIVERSE-4 (RS71S)
1 61747U 24199N   25131.17450017  .00011695  00000-0  38806-3 0  9997
2 61747  97.3613 359.9649 0010582 289.1382  70.8713 15.31344980 75589
SITRO-AIS-44
1 61748U 24199P   25131.17441613  .00018636  00000-0  55288-3 0  9995
2 61748  97.3579   0.3505 0007780 298.8865  61.1597 15.34836754 75613
VIZARD-ION (RS68S)
1 61749U 24199Q   25131.19551038  .00014620  00000-0  45674-3 0  9998
2 61749  97.3614   0.2461 0009849 287.7348  72.2819 15.33232597 75608
MTUSI-1
1 61750U 24199R   25131.19967570  .00015540  00000-0  48985-3 0  9992
2 61750  97.3586   0.0221 0010004 302.4592  57.5682 15.32931499 75599
VLADIVOSTOK-1
1 61751U 24199S   25131.20369630  .00007594  00000-0  27211-3 0  9997
2 61751  97.3597 359.5742 0010044 303.1521  56.8755 15.28977201 75573
SITRO-AIS-14
1 61752U 24199T   25131.19840874  .00002685  00000-0  25124-3 0  9997
2 61752  97.3621 350.5430 0006402 357.7380   2.3811 14.94855451 75010
HORS-3 (RS81S)
1 61753U 24199U   25131.16690878  .00015641  00000-0  49198-3 0  9995
2 61753  97.3581   0.0587 0008890 299.3340  60.7014 15.33007797 75598
HORS-4 (RS82S)
1 61754U 24199V   25131.18378492  .00016367  00000-0  50340-3 0  9990
2 61754  97.3577   0.1814 0008884 299.6481  60.3876 15.33712372 75606
SITRO-AIS-43
1 61755U 24199W   25131.16820340  .00018511  00000-0  54816-3 0  9998
2 61755  97.3579   0.3579 0007617 298.6355  61.4121 15.34897221 75615
SITRO-AIS-42
1 61756U 24199X   25131.16565169  .00017264  00000-0  51096-3 0  9995
2 61756  97.3581   0.3622 0007640 298.0832  61.9639 15.34928734 75611
HORIZON (RS59S)
1 61757U 24199Y   25131.16431840  .00022004  00000-0  61798-3 0  9992
2 61757  97.3602   0.5738 0008943 284.6165  75.4088 15.36513859 75622
SITRO-AIS-20
1 61758U 24199Z   25131.17784072  .00002464  00000-0  22971-3 0  9990
2 61758  97.3625 350.5631 0006335   2.6060 357.5194 14.95073512 75019
SITRO-AIS-19
1 61759U 24199AA  25131.17624716  .00002326  00000-0  21718-3 0  9994
2 61759  97.3626 350.5663 0006327   4.6137 355.5142 14.95055639 75015
SITRO-AIS-41
1 61760U 24199AB  25131.18210809  .00018536  00000-0  55328-3 0  9995
2 61760  97.3585   0.3460 0007743 298.0909  61.9551 15.34645279 75612
2024-199AC
1 61761U 24199AC  25131.23315089  .00015682  00000-0  48417-3 0  9998
2 61761  97.3580   0.2721 0007769 300.3519  59.6955 15.33611056 75616
ARCTICSAT-1 (RS74S)
1 61762U 24199AD  25131.21355334  .00020746  00000-0  58514-3 0  9990
2 61762  97.3600   0.6566 0009056 283.4236  76.5999 15.36392677 75635
SIT-HSE
1 61763U 24199AE  25131.23246034  .00010901  00000-0  32691-3 0  9999
2 61763  97.3583   0.4279 0007597 300.6359  59.4135 15.34624152 75626
SIT-2086
1 61764U 24199AF  25131.22330508  .00019482  00000-0  57663-3 0  9998
2 61764  97.3583   0.4402 0007160 297.8236  62.2281 15.34906197 72467
MORDOVIA-IOT (RS50S)
1 61765U 24199AG  25131.22250128  .00028786  00000-0  72282-3 0  9999
2 61765  97.3584   1.0901 0008092 278.3000  81.7329 15.39925091 72512
RUZAEVKA-390 (RS44S)
1 61766U 24199AH  25131.21243174  .00026022  00000-0  67906-3 0  9990
2 61766  97.3584   0.9478 0008171 278.6758  81.3561 15.38764790 72500
2024-199AJ (? AHMAT-2)
1 61767U 24199AJ  25131.20026682  .00034905  00000-0  83343-3 0  9995
2 61767  97.3575   1.2457 0007491 274.0525  85.9866 15.41419704 72524
